NORAD_CAT_ID,OBJECT_NAME,OBJECT_TYPE,EPOCH,MEAN_MOTION,ECCENTRICITY,INCLINATION,RA_OF_ASC_NODE,ARG_OF_PERICENTER,MEAN_ANOMALY,BSTAR,MEAN_MOTION_DOT,MEAN_MOTION_DDOT,TLE_LINE0,TLE_LINE1,TLE_LINE2,SEMIMAJOR_AXIS,PERIOD,APOGEE,PERIGEE,DECAYED
53540.0,STARLINK-4486,PAYLOAD,2023-04-20 07:02:57,15.08843027,0.0001647,53.2172,117.4899,80.5624,279.5554,4.424e-05,4.16e-06,0.0,0 STARLINK-4486,1 53540U 22101P   23110.29372396  .00000416  00000-0  44240-4 0  9990,2 53540  53.2172 117.4899 0001647  80.5624 279.5554 15.08843027 37815,6917.871,95.437,540.876,538.597,0.0
53540.0,STARLINK-4486,PAYLOAD,2023-04-21 06:53:45,15.08834104,0.0001491,53.2161,113.0275,89.5267,270.5896,2.3304e-05,8.3e-07,0.0,0 STARLINK-4486,1 53540U 22101P   23111.28733026  .00000083  00000-0  23304-4 0  9999,2 53540  53.2161 113.0275 0001491  89.5267 270.5896 15.08834104 37278,6917.898,95.438,540.795,538.732,0.0
53540.0,STARLINK-4486,PAYLOAD,2023-04-21 10:04:31,15.08834902,0.0001451,53.2168,112.4335,90.2029,269.913,2.0455e-05,3.8e-07,0.0,0 STARLINK-4486,1 53540U 22101P   23111.41981020  .00000038  00000-0  20455-4 0  9997,2 53540  53.2168 112.4335 0001451  90.2029 269.9130 15.08834902 37983,6917.896,95.438,540.765,538.757,0.0
53540.0,STARLINK-4486,PAYLOAD,2023-04-22 03:33:45,15.0884011,0.0001424,53.2166,109.1628,90.9324,269.1831,1.8493e-05,6e-08,0.0,0 STARLINK-4486,1 53540U 22101P   23112.14844781  .00000006  00000-0  18493-4 0  9994,2 53540  53.2166 109.1628 0001424  90.9324 269.1831 15.08840110 38095,6917.88,95.438,540.73,538.76,0.0
53540.0,STARLINK-4486,PAYLOAD,2023-04-22 16:16:50,15.08838888,0.0001412,53.2164,106.7846,91.4851,268.6303,5.2508e-05,5.48e-06,0.0,0 STARLINK-4486,1 53540U 22101P   23112.67836740  .00000548  00000-0  52508-4 0  9994,2 53540  53.2164 106.7846 0001412  91.4851 268.6303 15.08838888 38172,6917.884,95.438,540.726,538.772,0.0
53540.0,STARLINK-4486,PAYLOAD,2023-04-23 09:46:06,15.08832819,0.0001416,53.2166,103.5138,91.5005,268.6149,8.9045e-06,-1.46e-06,0.0,0 STARLINK-4486,1 53540U 22101P   23113.40701489 -.00000146  00000-0  89045-5 0  9999,2 53540  53.2166 103.5138 0001416  91.5005 268.6149 15.08832819 38287,6917.902,95.438,540.747,538.788,0.0
53540.0,STARLINK-4486,PAYLOAD,2023-04-24 09:36:51,15.08851105,0.0001526,53.2186,99.0517,97.7097,262.4068,0.00010134,1.326e-05,0.0,0 STARLINK-4486,1 53540U 22101P   23114.40060101  .00001326  00000-0  10134-3 0  9990,2 53540  53.2186  99.0517 0001526  97.7097 262.4068 15.08851105 37741,6917.846,95.437,540.767,538.656,0.0
53540.0,STARLINK-4486,PAYLOAD,2023-04-24 15:58:24,15.08844612,0.0001408,53.2179,97.862,94.4422,265.6731,6.5459e-05,7.54e-06,0.0,0 STARLINK-4486,1 53540U 22101P   23114.66556481  .00000754  00000-0  65459-4 0  9994,2 53540  53.2179  97.8620 0001408  94.4422 265.6731 15.08844612 37780,6917.866,95.437,540.705,538.757,0.0
53540.0,STARLINK-4486,PAYLOAD,2023-04-25 07:52:14,15.08861237,0.0001239,53.2177,94.8893,100.1307,259.9825,0.00018614,2.677e-05,0.0,0 STARLINK-4486,1 53540U 22101P   23115.32794721  .00002677  00000-0  18614-3 0  9995,2 53540  53.2177  94.8893 0001239 100.1307 259.9825 15.08861237 37889,6917.815,95.436,540.538,538.823,0.0
53540.0,STARLINK-4486,PAYLOAD,2023-04-26 07:43:04,15.08826115,0.0001326,53.2199,90.4254,105.4755,254.6384,-0.00012303,-2.245e-05,0.0,0 STARLINK-4486,1 53540U 22101P   23116.32158252 -.00002245  00000-0 -12303-3 0  9991,2 53540  53.2199  90.4254 0001326 105.4755 254.6384 15.08826115 38720,6917.923,95.438,540.705,538.871,0.0
53540.0,STARLINK-4486,PAYLOAD,2023-04-26 15:40:00,15.08825391,0.0001769,53.2193,88.9402,91.041,269.0785,-0.00011857,-2.174e-05,0.0,0 STARLINK-4486,1 53540U 22101P   23116.65278723 -.00002174  00000-0 -11857-3 0  9997,2 53540  53.2193  88.9402 0001769  91.0410 269.0785 15.08825391 38775,6917.925,95.438,541.014,538.566,0.0
53540.0,STARLINK-4486,PAYLOAD,2023-04-27 07:33:51,15.08841789,0.0001089,53.2172,85.9707,89.9902,270.1214,-0.0001202,-2.2e-05,0.0,0 STARLINK-4486,1 53540U 22101P   23117.31517926 -.00002200  00000-0 -12020-3 0  9995,2 53540  53.2172  85.9707 0001089  89.9902 270.1214 15.08841789 38188,6917.875,95.437,540.493,538.987,0.0
53540.0,STARLINK-4486,PAYLOAD,2023-04-28 04:13:51,15.08846413,0.0001253,53.2179,82.103,88.6786,271.435,0.00028944,4.322e-05,0.0,0 STARLINK-4486,1 53540U 22101P   23118.17628502  .00004322  00000-0  28944-3 0  9990,2 53540  53.2179  82.1030 0001253  88.6786 271.4350 15.08846413 38311,6917.861,95.437,540.593,538.859,0.0
53540.0,STARLINK-4486,PAYLOAD,2023-04-28 07:24:37,15.08849134,0.0001266,53.2178,81.5082,88.6899,271.4239,0.00030916,4.637e-05,0.0,0 STARLINK-4486,1 53540U 22101P   23118.30876309  .00004637  00000-0  30916-3 0  9996,2 53540  53.2178  81.5082 0001266  88.6899 271.4239 15.08849134 39027,6917.852,95.437,540.593,538.842,0.0
53540.0,STARLINK-4486,PAYLOAD,2023-04-29 04:04:39,15.08835188,0.0001194,53.2185,77.6428,95.5158,264.597,7.4399e-05,8.96e-06,0.0,0 STARLINK-4486,1 53540U 22101P   23119.16990313  .00000896  00000-0  74399-4 0  9990,2 53540  53.2185  77.6428 0001194  95.5158 264.5970 15.08835188 38466,6917.895,95.438,540.586,538.934,0.0
53540.0,STARLINK-4486,PAYLOAD,2023-04-30 05:30:49,15.08850205,0.0001117,53.2193,72.8865,94.6385,265.4735,-4.2947e-05,-9.71e-06,0.0,0 STARLINK-4486,1 53540U 22101P   23120.22973584 -.00000971  00000-0 -42947-4 0  9990,2 53540  53.2193  72.8865 0001117  94.6385 265.4735 15.08850205 38628,6917.849,95.437,540.487,538.941,0.0
53540.0,STARLINK-4486,PAYLOAD,2023-05-01 02:10:50,15.08833612,0.000117,53.2199,69.0215,99.9096,260.2028,8.8679e-05,1.124e-05,0.0,0 STARLINK-4486,1 53540U 22101P   23121.09086576  .00001124  00000-0  88679-4 0  9993,2 53540  53.2199  69.0215 0001170  99.9096 260.2028 15.08833612 38752,6917.9,95.438,540.574,538.956,0.0
53540.0,STARLINK-4486,PAYLOAD,2023-05-01 06:56:59,15.08848434,0.0001437,53.2198,68.1293,103.7966,256.3186,2.4748e-05,1.06e-06,0.0,0 STARLINK-4486,1 53540U 22101P   23121.28957754  .00000106  00000-0  24748-4 0  9995,2 53540  53.2198  68.1293 0001437 103.7966 256.3186 15.08848434 38785,6917.855,95.437,540.714,538.726,0.0
53540.0,STARLINK-4486,PAYLOAD,2023-05-02 05:12:23,15.08844755,0.0001192,53.2182,63.9644,92.0932,268.0196,0.00012028,1.627e-05,0.0,0 STARLINK-4486,1 53540U 22101P   23122.21694129  .00001627  00000-0  12028-3 0  9999,2 53540  53.2182  63.9644 0001192  92.0932 268.0196 15.08844755 38921,6917.866,95.437,540.555,538.906,0.0
53540.0,STARLINK-4486,PAYLOAD,2023-05-02 13:09:19,15.08845595,0.0001267,53.2177,62.48,83.2275,276.8862,9.3236e-05,1.196e-05,0.0,0 STARLINK-4486,1 53540U 22101P   23122.54814085  .00001196  00000-0  93236-4 0  9992,2 53540  53.2177  62.4800 0001267  83.2275 276.8862 15.08845595 39660,6917.863,95.437,540.605,538.852,0.0
53540.0,STARLINK-4486,PAYLOAD,2023-05-02 19:30:52,15.08785684,0.0001597,53.2174,61.2895,96.726,263.3914,0.00095067,0.00014852,0.0,0 STARLINK-4486,1 53540U 22101P   23122.81310612  .00014852  00000-0  95067-3 0  9995,2 53540  53.2174  61.2895 0001597  96.7260 263.3914 15.08785684 39017,6918.046,95.441,541.016,538.807,0.0
53540.0,STARLINK-4486,PAYLOAD,2023-05-02 21:06:16,15.0875461,0.0001796,53.2177,60.9908,96.5209,263.5988,0.0013288,0.00020874,0.0,0 STARLINK-4486,1 53540U 22101P   23122.87935390  .00020874  00000-0  13288-2 0  9992,2 53540  53.2177  60.9908 0001796  96.5209 263.5988 15.08754610 39718,6918.141,95.443,541.249,538.764,0.0
53540.0,STARLINK-4486,PAYLOAD,2023-05-03 05:03:10,15.0884781,0.0001317,53.2185,59.504,107.7996,252.314,0.00012324,1.674e-05,0.0,0 STARLINK-4486,1 53540U 22101P   23123.21053820  .00001674  00000-0  12324-3 0  9998,2 53540  53.2185  59.5040 0001317 107.7996 252.3140 15.08847810 39075,6917.857,95.437,540.633,538.81,0.0
53540.0,STARLINK-4486,PAYLOAD,2023-05-04 01:43:11,15.08842334,0.0001167,53.2179,55.6379,98.3809,261.7315,1.2475e-05,-8.9e-07,0.0,0 STARLINK-4486,1 53540U 22101P   23124.07166486 -.00000089  00000-0  12475-4 0  9994,2 53540  53.2179  55.6379 0001167  98.3809 261.7315 15.08842334 39200,6917.873,95.437,540.546,538.931,0.0
53540.0,STARLINK-4486,PAYLOAD,2023-05-04 04:53:58,15.08843624,0.0001165,53.2181,55.0432,96.9123,263.2002,2.344e-05,8.5e-07,0.0,0 STARLINK-4486,1 53540U 22101P   23124.20414371  .00000085  00000-0  23440-4 0  9997,2 53540  53.2181  55.0432 0001165  96.9123 263.2002 15.08843624 39919,6917.869,95.437,540.54,538.928,0.0
53540.0,STARLINK-4486,PAYLOAD,2023-05-05 04:44:44,15.0885253,0.000126,53.218,50.5827,93.6751,266.4386,0.0002189,3.199e-05,0.0,0 STARLINK-4486,1 53540U 22101P   23125.19773728  .00003199  00000-0  21890-3 0  9995,2 53540  53.2180  50.5827 0001260  93.6751 266.4386 15.08852530 39379,6917.842,95.437,540.579,538.835,0.0
53540.0,STARLINK-4486,PAYLOAD,2023-05-06 01:24:45,15.08845846,0.0001186,53.2181,46.718,97.8482,262.2645,0.00018667,2.685e-05,0.0,0 STARLINK-4486,1 53540U 22101P   23126.05886163  .00002685  00000-0  18667-3 0  9996,2 53540  53.2181  46.7180 0001186  97.8482 262.2645 15.08845846 39502,6917.863,95.437,540.548,538.907,0.0
53540.0,STARLINK-4486,PAYLOAD,2023-05-07 04:26:17,15.08863879,0.0001013,53.2165,41.6641,96.2978,263.813,-0.00018043,-3.16e-05,0.0,0 STARLINK-4486,1 53540U 22101P   23127.18492926 -.00003160  00000-0 -18043-3 0  9990,2 53540  53.2165  41.6641 0001013  96.2978 263.8130 15.08863879 39672,6917.807,95.436,540.373,538.972,0.0
53540.0,STARLINK-4486,PAYLOAD,2023-05-07 21:55:34,15.08828113,0.0001155,53.2168,38.3906,96.752,263.3604,-4.6315e-05,-1.025e-05,0.0,0 STARLINK-4486,1 53540U 22101P   23127.91359248 -.00001025  00000-0 -46315-4 0  9992,2 53540  53.2168  38.3906 0001155  96.7520 263.3604 15.08828113 40470,6917.917,95.438,540.581,538.983,0.0
53540.0,STARLINK-4486,PAYLOAD,2023-05-08 01:06:20,15.08828801,0.000101,53.216,37.7995,89.2124,270.8984,-3.4696e-05,-8.4e-06,0.0,0 STARLINK-4486,1 53540U 22101P   23128.04607334 -.00000840  00000-0 -34696-4 0  9992,2 53540  53.2160  37.7995 0001010  89.2124 270.8984 15.08828801 39803,6917.915,95.438,540.478,539.081,0.0
